start=new Date('2022-05-09T00:00:00.000Z').valueOf();
sats=[{"OBJECT_TYPE":"PAYLOAD","BSTAR":"0.00013792000000","DECAY_DATE":null,"TLE_LINE1":"1 48093U 21027B   22128.54993193  .00001773  00000-0  13792-3 0  9997","TIME_SYSTEM":"UTC","INCLINATION":"53.0558","GP_ID":"202982810","RCS_SIZE":"LARGE","RA_OF_ASC_NODE":"331.5864","PERIOD":"95.592","MEAN_MOTION_DOT":"0.00001773","CENTER_NAME":"EARTH","ARG_OF_PERICENTER":"73.1133","EPHEMERIS_TYPE":"0","LAUNCH_DATE":"2021-04-07","MEAN_MOTION_DDOT":"0.0000000000000","MEAN_ANOMALY":"287.0005","MEAN_MOTION":"15.06396587","REF_FRAME":"TEME","SEMIMAJOR_AXIS":"6925.359","OBJECT_ID":"2021-027B","APOAPSIS":"548.167","EPOCH":"2022-05-08T13:11:54.118752","FILE":"3435303","TLE_LINE2":"2 48093  53.0558 331.5864 0001362  73.1133 287.0005 15.06396587 60976","REV_AT_EPOCH":"6097","OBJECT_NAME":"STARLINK-2404","ECCENTRICITY":"0.00013620","ELEMENT_SET_NO":"999","PERIAPSIS":"546.281","CLASSIFICATION_TYPE":"U","NORAD_CAT_ID":"48093","MEAN_ELEMENT_THEORY":"SGP4","SITE":"AFETR","COUNTRY_CODE":"US"},{"MEAN_MOTION":"15.06399519","LAUNCH_DATE":"2021-04-07","MEAN_ANOMALY":"288.1648","MEAN_MOTION_DDOT":"0.0000000000000","EPHEMERIS_TYPE":"0","ARG_OF_PERICENTER":"71.9501","RA_OF_ASC_NODE":"342.6142","PERIOD":"95.592","MEAN_MOTION_DOT":"0.00001687","CENTER_NAME":"EARTH","GP_ID":"203015903","INCLINATION":"53.0564","RCS_SIZE":"LARGE","DECAY_DATE":null,"TLE_LINE1":"1 48094U 21027C   22128.32142477  .00001687  00000-0  13210-3 0  9994","TIME_SYSTEM":"UTC","BSTAR":"0.00013210000000","OBJECT_TYPE":"PAYLOAD","SITE":"AFETR","COUNTRY_CODE":"US","MEAN_ELEMENT_THEORY":"SGP4","NORAD_CAT_ID":"48094","CLASSIFICATION_TYPE":"U","OBJECT_NAME":"STARLINK-2412","ECCENTRICITY":"0.00014660","ELEMENT_SET_NO":"999","PERIAPSIS":"546.200","REV_AT_EPOCH":"6120","TLE_LINE2":"2 48094  53.0564 342.6142 0001466  71.9501 288.1648 15.06399519 61206","EPOCH":"2022-05-08T07:42:51.100128","APOAPSIS":"548.230","FILE":"3435746","REF_FRAME":"TEME","SEMIMAJOR_AXIS":"6925.350","OBJECT_ID":"2021-027C"},{"LAUNCH_DATE":"2021-04-07","MEAN_ANOMALY":"286.7456","MEAN_MOTION_DDOT":"0.0000000000000","MEAN_MOTION":"15.06397868","ARG_OF_PERICENTER":"73.3701","EPHEMERIS_TYPE":"0","RCS_SIZE":"MEDIUM","GP_ID":"203016659","INCLINATION":"53.0553","CENTER_NAME":"EARTH","PERIOD":"95.592","RA_OF_ASC_NODE":"342.5756","MEAN_MOTION_DOT":"0.00000699","BSTAR":"0.00006584100000","OBJECT_TYPE":"PAYLOAD","TIME_SYSTEM":"UTC","TLE_LINE1":"1 48095U 21027D   22128.32879586  .00000699  00000-0  65841-4 0  9993","DECAY_DATE":null,"COUNTRY_CODE":"US","SITE":"AFETR","CLASSIFICATION_TYPE":"U","NORAD_CAT_ID":"48095","MEAN_ELEMENT_THEORY":"SGP4","REV_AT_EPOCH":"6121","TLE_LINE2":"2 48095  53.0553 342.5756 0001534  73.3701 286.7456 15.06397868 61216","ELEMENT_SET_NO":"999","PERIAPSIS":"546.158","ECCENTRICITY":"0.00015340","OBJECT_NAME":"STARLINK-2414","OBJECT_ID":"2021-027D","SEMIMAJOR_AXIS":"6925.355","REF_FRAME":"TEME","FILE":"3435746","EPOCH":"2022-05-08T07:53:27.962304","APOAPSIS":"548.282"},{"TIME_SYSTEM":"UTC","TLE_LINE1":"1 48096U 21027E   22128.56838322  .00007586  00000-0  52745-3 0  9993","DECAY_DATE":null,"BSTAR":"0.00052745000000","OBJECT_TYPE":"PAYLOAD","CENTER_NAME":"EARTH","PERIOD":"95.592","MEAN_MOTION_DOT":"0.00007586","RA_OF_ASC_NODE":"341.5020","RCS_SIZE":"LARGE","INCLINATION":"53.0541","GP_ID":"203015408","EPHEMERIS_TYPE":"0","ARG_OF_PERICENTER":"74.7064","MEAN_MOTION":"15.06409668","MEAN_MOTION_DDOT":"0.0000000000000","LAUNCH_DATE":"2021-04-07","MEAN_ANOMALY":"285.4085","FILE":"3435746","APOAPSIS":"548.190","EPOCH":"2022-05-08T13:38:28.310208","OBJECT_ID":"2021-027E","SEMIMAJOR_AXIS":"6925.319","REF_FRAME":"TEME","PERIAPSIS":"546.178","ELEMENT_SET_NO":"999","ECCENTRICITY":"0.00014530","OBJECT_NAME":"STARLINK-2417","TLE_LINE2":"2 48096  53.0541 341.5020 0001453  74.7064 285.4085 15.06409668 61232","REV_AT_EPOCH":"6123","MEAN_ELEMENT_THEORY":"SGP4","NORAD_CAT_ID":"48096","CLASSIFICATION_TYPE":"U","COUNTRY_CODE":"US","SITE":"AFETR"},{"REV_AT_EPOCH":"6151","TLE_LINE2":"2 48097  53.0545 321.6012 0001475  80.9802 279.1354 15.06408178 61515","PERIAPSIS":"546.167","ELEMENT_SET_NO":"999","ECCENTRICITY":"0.00014750","OBJECT_NAME":"STARLINK-2418","OBJECT_ID":"2021-027F","SEMIMAJOR_AXIS":"6925.323","REF_FRAME":"TEME","FILE":"3435746","APOAPSIS":"548.210","EPOCH":"2022-05-08T13:09:17.390016","COUNTRY_CODE":"US","SITE":"AFETR","NORAD_CAT_ID":"48097","CLASSIFICATION_TYPE":"U","MEAN_ELEMENT_THEORY":"SGP4","RCS_SIZE":"LARGE","GP_ID":"203015152","INCLINATION":"53.0545","CENTER_NAME":"EARTH","PERIOD":"95.592","MEAN_MOTION_DOT":"0.00002086","RA_OF_ASC_NODE":"321.6012","BSTAR":"0.00015886000000","OBJECT_TYPE":"PAYLOAD","TIME_SYSTEM":"UTC","TLE_LINE1":"1 48097U 21027F   22128.54811794  .00002086  00000-0  15886-3 0  9991","DECAY_DATE":null,"LAUNCH_DATE":"2021-04-07","MEAN_MOTION_DDOT":"0.0000000000000","MEAN_ANOMALY":"279.1354","MEAN_MOTION":"15.06408178","ARG_OF_PERICENTER":"80.9802","EPHEMERIS_TYPE":"0"},{"ARG_OF_PERICENTER":"79.7502","EPHEMERIS_TYPE":"0","LAUNCH_DATE":"2021-04-07","MEAN_ANOMALY":"280.3626","MEAN_MOTION_DDOT":"0.0000000000000","MEAN_MOTION":"15.06397005","OBJECT_TYPE":"PAYLOAD","BSTAR":"0.00014471000000","TLE_LINE1":"1 48098U 21027G   22128.52507157  .00001875  00000-0  14471-3 0  9999","TIME_SYSTEM":"UTC","DECAY_DATE":null,"GP_ID":"203016403","INCLINATION":"53.0555","RCS_SIZE":"LARGE","CENTER_NAME":"EARTH","MEAN_MOTION_DOT":"0.00001875","PERIOD":"95.592","RA_OF_ASC_NODE":"331.7008","CLASSIFICATION_TYPE":"U","NORAD_CAT_ID":"48098","MEAN_ELEMENT_THEORY":"SGP4","SITE":"AFETR","COUNTRY_CODE":"US","SEMIMAJOR_AXIS":"6925.358","OBJECT_ID":"2021-027G","REF_FRAME":"TEME","FILE":"3435746","EPOCH":"2022-05-08T12:36:06.183648","APOAPSIS":"548.076","REV_AT_EPOCH":"6136","TLE_LINE2":"2 48098  53.0555 331.7008 0001232  79.7502 280.3626 15.06397005 61363","PERIAPSIS":"546.370","ELEMENT_SET_NO":"999","OBJECT_NAME":"STARLINK-2421","ECCENTRICITY":"0.00012320"},{"APOAPSIS":"548.301","EPOCH":"2022-05-08T18:40:59.623104","FILE":"3435835","REF_FRAME":"TEME","OBJECT_ID":"2021-027H","SEMIMAJOR_AXIS":"6925.270","ECCENTRICITY":"0.00016830","OBJECT_NAME":"STARLINK-2428","ELEMENT_SET_NO":"999","PERIAPSIS":"545.970","TLE_LINE2":"2 48099  53.0552 340.5630 0001683  81.5630 278.5550 15.06425495 60867","REV_AT_EPOCH":"6086","MEAN_ELEMENT_THEORY":"SGP4","NORAD_CAT_ID":"48099","CLASSIFICATION_TYPE":"U","COUNTRY_CODE":"US","SITE":"AFETR","DECAY_DATE":null,"TIME_SYSTEM":"UTC","TLE_LINE1":"1 48099U 21027H   22128.77846786 -.00004463  00000-0 -28068-3 0  9996","BSTAR":"-0.00028068000000","OBJECT_TYPE":"PAYLOAD","MEAN_MOTION_DOT":"-0.00004463","PERIOD":"95.591","RA_OF_ASC_NODE":"340.5630","CENTER_NAME":"EARTH","RCS_SIZE":"LARGE","GP_ID":"203021150","INCLINATION":"53.0552","EPHEMERIS_TYPE":"0","ARG_OF_PERICENTER":"81.5630","MEAN_MOTION":"15.06425495","MEAN_MOTION_DDOT":"0.0000000000000","LAUNCH_DATE":"2021-04-07","MEAN_ANOMALY":"278.5550"},{"EPOCH":"2022-05-08T12:58:39.827136","APOAPSIS":"548.106","FILE":"3435329","REF_FRAME":"TEME","OBJECT_ID":"2021-027J","SEMIMAJOR_AXIS":"6925.341","ECCENTRICITY":"0.00013000","OBJECT_NAME":"STARLINK-2430","PERIAPSIS":"546.306","ELEMENT_SET_NO":"999","REV_AT_EPOCH":"6111","TLE_LINE2":"2 48100  53.0556 321.6284 0001300  73.1265 286.9867 15.06402468 61114","MEAN_ELEMENT_THEORY":"SGP4","NORAD_CAT_ID":"48100","CLASSIFICATION_TYPE":"U","COUNTRY_CODE":"US","SITE":"AFETR","DECAY_DATE":null,"TIME_SYSTEM":"UTC","TLE_LINE1":"1 48100U 21027J   22128.54073874  .00003012  00000-0  22101-3 0  9993","BSTAR":"0.00022101000000","OBJECT_TYPE":"PAYLOAD","RA_OF_ASC_NODE":"321.6284","PERIOD":"95.592","MEAN_MOTION_DOT":"0.00003012","CENTER_NAME":"EARTH","RCS_SIZE":"MEDIUM","GP_ID":"202983134","INCLINATION":"53.0556","EPHEMERIS_TYPE":"0","ARG_OF_PERICENTER":"73.1265","MEAN_MOTION":"15.06402468","MEAN_MOTION_DDOT":"0.0000000000000","LAUNCH_DATE":"2021-04-07","MEAN_ANOMALY":"286.9867"},{"ARG_OF_PERICENTER":"70.1559","EPHEMERIS_TYPE":"0","LAUNCH_DATE":"2021-04-07","MEAN_MOTION_DDOT":"0.0000000000000","MEAN_ANOMALY":"289.9577","MEAN_MOTION":"15.06390004","OBJECT_TYPE":"PAYLOAD","BSTAR":"0.00002438100000","TLE_LINE1":"1 48101U 21027K   22128.52413016  .00000082  00000-0  24381-4 0  9995","TIME_SYSTEM":"UTC","DECAY_DATE":null,"GP_ID":"203015651","INCLINATION":"53.0562","RCS_SIZE":"LARGE","CENTER_NAME":"EARTH","MEAN_MOTION_DOT":"0.00000082","PERIOD":"95.593","RA_OF_ASC_NODE":"331.7047","NORAD_CAT_ID":"48101","CLASSIFICATION_TYPE":"U","MEAN_ELEMENT_THEORY":"SGP4","SITE":"AFETR","COUNTRY_CODE":"US","SEMIMAJOR_AXIS":"6925.379","OBJECT_ID":"2021-027K","REF_FRAME":"TEME","FILE":"3435746","APOAPSIS":"548.191","EPOCH":"2022-05-08T12:34:44.845824","REV_AT_EPOCH":"6137","TLE_LINE2":"2 48101  53.0562 331.7047 0001367  70.1559 289.9577 15.06390004 61378","ELEMENT_SET_NO":"999","PERIAPSIS":"546.297","OBJECT_NAME":"STARLINK-2436","ECCENTRICITY":"0.00013670"},{"NORAD_CAT_ID":"48102","CLASSIFICATION_TYPE":"U","MEAN_ELEMENT_THEORY":"SGP4","SITE":"AFETR","COUNTRY_CODE":"US","SEMIMAJOR_AXIS":"6925.354","OBJECT_ID":"2021-027L","REF_FRAME":"TEME","FILE":"3435838","EPOCH":"2022-05-08T18:22:26.266656","APOAPSIS":"548.190","TLE_LINE2":"2 48102  53.0577 320.6182 0001402  69.3336 290.7803 15.06398104 61141","REV_AT_EPOCH":"6114","PERIAPSIS":"546.248","ELEMENT_SET_NO":"999","OBJECT_NAME":"STARLINK-2437","ECCENTRICITY":"0.00014020","ARG_OF_PERICENTER":"69.3336","EPHEMERIS_TYPE":"0","MEAN_MOTION_DDOT":"0.0000000000000","LAUNCH_DATE":"2021-04-07","MEAN_ANOMALY":"290.7803","MEAN_MOTION":"15.06398104","BSTAR":"0.00012671000000","OBJECT_TYPE":"PAYLOAD","TLE_LINE1":"1 48102U 21027L   22128.76558179  .00001606  00000-0  12671-3 0  9993","TIME_SYSTEM":"UTC","DECAY_DATE":null,"INCLINATION":"53.0577","GP_ID":"203021207","RCS_SIZE":"LARGE","CENTER_NAME":"EARTH","RA_OF_ASC_NODE":"320.6182","PERIOD":"95.592","MEAN_MOTION_DOT":"0.00001606"}];
